start=new Date('2022-04-27T00:00:00.000Z').valueOf();
sats=[{"REF_FRAME":"TEME","CLASSIFICATION_TYPE":"U","RCS_SIZE":"LARGE","COUNTRY_CODE":"US","PERIAPSIS":"546.115","ELEMENT_SET_NO":"999","RA_OF_ASC_NODE":"274.7166","MEAN_ANOMALY":"302.4385","ECCENTRICITY":"0.00016040","LAUNCH_DATE":"2021-02-16","OBJECT_ID":"2021-012AF","INCLINATION":"53.0541","BSTAR":"0.00009513500000","FILE":"3417474","APOAPSIS":"548.337","CENTER_NAME":"EARTH","SITE":"AFETR","EPOCH":"2022-04-26T17:08:44.312064","TIME_SYSTEM":"UTC","DECAY_DATE":null,"SEMIMAJOR_AXIS":"6925.361","MEAN_MOTION_DOT":"0.00001136","MEAN_MOTION_DDOT":"0.0000000000000","EPHEMERIS_TYPE":"0","OBJECT_TYPE":"PAYLOAD","OBJECT_NAME":"STARLINK-2032","TLE_LINE2":"2 47649  53.0541 274.7166 0001604  57.6759 302.4385 15.06396046 67304","REV_AT_EPOCH":"6730","MEAN_MOTION":"15.06396046","ARG_OF_PERICENTER":"57.6759","PERIOD":"95.592","TLE_LINE1":"1 47649U 21012AF  22116.71440176  .00001136  00000-0  95135-4 0  9996","NORAD_CAT_ID":"47649","MEAN_ELEMENT_THEORY":"SGP4","GP_ID":"202111250"},{"RA_OF_ASC_NODE":"274.7807","ELEMENT_SET_NO":"999","REF_FRAME":"TEME","RCS_SIZE":"LARGE","CLASSIFICATION_TYPE":"U","PERIAPSIS":"546.174","COUNTRY_CODE":"US","CENTER_NAME":"EARTH","SITE":"AFETR","OBJECT_ID":"2021-012AG","MEAN_ANOMALY":"289.1384","ECCENTRICITY":"0.00014920","LAUNCH_DATE":"2021-02-16","FILE":"3417474","APOAPSIS":"548.240","BSTAR":"0.00015294000000","INCLINATION":"53.0540","MEAN_MOTION_DOT":"0.00001997","EPHEMERIS_TYPE":"0","MEAN_MOTION_DDOT":"0.0000000000000","EPOCH":"2022-04-26T16:47:30.213600","DECAY_DATE":null,"SEMIMAJOR_AXIS":"6925.342","TIME_SYSTEM":"UTC","ARG_OF_PERICENTER":"70.9767","PERIOD":"95.592","NORAD_CAT_ID":"47650","TLE_LINE1":"1 47650U 21012AG  22116.69965525  .00001997  00000-0  15294-3 0  9997","GP_ID":"202109997","MEAN_ELEMENT_THEORY":"SGP4","OBJECT_NAME":"STARLINK-2033","OBJECT_TYPE":"PAYLOAD","REV_AT_EPOCH":"6728","MEAN_MOTION":"15.06402193","TLE_LINE2":"2 47650  53.0540 274.7807 0001492  70.9767 289.1384 15.06402193 67287"},{"CENTER_NAME":"EARTH","SITE":"AFETR","MEAN_ANOMALY":"289.6035","ECCENTRICITY":"0.00014240","LAUNCH_DATE":"2021-02-16","OBJECT_ID":"2021-012AH","INCLINATION":"53.0546","BSTAR":"0.00012479000000","FILE":"3417474","APOAPSIS":"548.193","ELEMENT_SET_NO":"999","RA_OF_ASC_NODE":"294.0389","REF_FRAME":"TEME","CLASSIFICATION_TYPE":"U","RCS_SIZE":"LARGE","COUNTRY_CODE":"US","PERIAPSIS":"546.221","ARG_OF_PERICENTER":"70.5108","PERIOD":"95.592","NORAD_CAT_ID":"47651","TLE_LINE1":"1 47651U 21012AH  22116.86642105  .00001578  00000-0  12479-3 0  9990","MEAN_ELEMENT_THEORY":"SGP4","GP_ID":"202110244","OBJECT_TYPE":"PAYLOAD","OBJECT_NAME":"STARLINK-2035","TLE_LINE2":"2 47651  53.0546 294.0389 0001424  70.5108 289.6035 15.06402091 67043","REV_AT_EPOCH":"6704","MEAN_MOTION":"15.06402091","MEAN_MOTION_DOT":"0.00001578","MEAN_MOTION_DDOT":"0.0000000000000","EPHEMERIS_TYPE":"0","EPOCH":"2022-04-26T20:47:38.778720","TIME_SYSTEM":"UTC","DECAY_DATE":null,"SEMIMAJOR_AXIS":"6925.342"},{"TLE_LINE2":"2 47652  53.0535 294.5112 0001638  64.3793 295.7365 15.06401184 67023","MEAN_MOTION":"15.06401184","REV_AT_EPOCH":"6702","OBJECT_TYPE":"PAYLOAD","OBJECT_NAME":"STARLINK-2036","MEAN_ELEMENT_THEORY":"SGP4","GP_ID":"202110498","NORAD_CAT_ID":"47652","TLE_LINE1":"1 47652U 21012AJ  22116.76047634  .00001039  00000-0  88654-4 0  9997","ARG_OF_PERICENTER":"64.3793","PERIOD":"95.592","TIME_SYSTEM":"UTC","SEMIMAJOR_AXIS":"6925.345","DECAY_DATE":null,"EPOCH":"2022-04-26T18:15:05.155776","EPHEMERIS_TYPE":"0","MEAN_MOTION_DDOT":"0.0000000000000","MEAN_MOTION_DOT":"0.00001039","BSTAR":"0.00008865400000","INCLINATION":"53.0535","FILE":"3417474","APOAPSIS":"548.344","LAUNCH_DATE":"2021-02-16","ECCENTRICITY":"0.00016380","MEAN_ANOMALY":"295.7365","OBJECT_ID":"2021-012AJ","SITE":"AFETR","CENTER_NAME":"EARTH","PERIAPSIS":"546.076","COUNTRY_CODE":"US","CLASSIFICATION_TYPE":"U","RCS_SIZE":"LARGE","REF_FRAME":"TEME","ELEMENT_SET_NO":"999","RA_OF_ASC_NODE":"294.5112"},{"ELEMENT_SET_NO":"999","RA_OF_ASC_NODE":"274.2216","REF_FRAME":"TEME","COUNTRY_CODE":"US","PERIAPSIS":"545.932","CLASSIFICATION_TYPE":"U","RCS_SIZE":"LARGE","CENTER_NAME":"EARTH","SITE":"AFETR","LAUNCH_DATE":"2021-02-16","MEAN_ANOMALY":"313.9363","ECCENTRICITY":"0.00018460","OBJECT_ID":"2021-012AK","BSTAR":"0.00018514000000","INCLINATION":"53.0542","FILE":"3417474","APOAPSIS":"548.488","MEAN_MOTION_DOT":"0.00002477","MEAN_MOTION_DDOT":"0.0000000000000","EPHEMERIS_TYPE":"0","EPOCH":"2022-04-26T19:42:39.418848","TIME_SYSTEM":"UTC","SEMIMAJOR_AXIS":"6925.345","DECAY_DATE":null,"TLE_LINE1":"1 47653U 21012AK  22116.82128957  .00002477  00000-0  18514-3 0  9997","NORAD_CAT_ID":"47653","PERIOD":"95.592","ARG_OF_PERICENTER":"46.1779","MEAN_ELEMENT_THEORY":"SGP4","GP_ID":"202110750","OBJECT_TYPE":"PAYLOAD","OBJECT_NAME":"STARLINK-2037","TLE_LINE2":"2 47653  53.0542 274.2216 0001846  46.1779 313.9363 15.06401161 67302","MEAN_MOTION":"15.06401161","REV_AT_EPOCH":"6730"},{"EPOCH":"2022-04-26T19:55:55.506720","TIME_SYSTEM":"UTC","SEMIMAJOR_AXIS":"6925.316","DECAY_DATE":null,"MEAN_MOTION_DOT":"0.00005789","MEAN_MOTION_DDOT":"0.0000000000000","EPHEMERIS_TYPE":"0","OBJECT_TYPE":"PAYLOAD","OBJECT_NAME":"STARLINK-2038","TLE_LINE2":"2 47654  53.0549 294.1880 0001572  59.4459 300.6685 15.06410552 67030","MEAN_MOTION":"15.06410552","REV_AT_EPOCH":"6703","NORAD_CAT_ID":"47654","TLE_LINE1":"1 47654U 21012AL  22116.83050355  .00005789  00000-0  40712-3 0  9999","ARG_OF_PERICENTER":"59.4459","PERIOD":"95.591","MEAN_ELEMENT_THEORY":"SGP4","GP_ID":"202109497","REF_FRAME":"TEME","PERIAPSIS":"546.093","COUNTRY_CODE":"US","RCS_SIZE":"LARGE","CLASSIFICATION_TYPE":"U","ELEMENT_SET_NO":"999","RA_OF_ASC_NODE":"294.1880","LAUNCH_DATE":"2021-02-16","ECCENTRICITY":"0.00015720","MEAN_ANOMALY":"300.6685","OBJECT_ID":"2021-012AL","BSTAR":"0.00040712000000","INCLINATION":"53.0549","FILE":"3417474","APOAPSIS":"548.270","CENTER_NAME":"EARTH","SITE":"AFETR"},{"REF_FRAME":"TEME","COUNTRY_CODE":"US","PERIAPSIS":"546.234","CLASSIFICATION_TYPE":"U","RCS_SIZE":"LARGE","RA_OF_ASC_NODE":"294.2270","ELEMENT_SET_NO":"999","OBJECT_ID":"2021-012AM","LAUNCH_DATE":"2021-02-16","MEAN_ANOMALY":"297.8775","ECCENTRICITY":"0.00013860","APOAPSIS":"548.154","FILE":"3417474","BSTAR":"0.00013734000000","INCLINATION":"53.0551","CENTER_NAME":"EARTH","SITE":"AFETR","EPOCH":"2022-04-26T19:45:19.086912","SEMIMAJOR_AXIS":"6925.329","DECAY_DATE":null,"TIME_SYSTEM":"UTC","MEAN_MOTION_DOT":"0.00001765","EPHEMERIS_TYPE":"0","MEAN_MOTION_DDOT":"0.0000000000000","OBJECT_NAME":"STARLINK-2039","OBJECT_TYPE":"PAYLOAD","MEAN_MOTION":"15.06406453","REV_AT_EPOCH":"6703","TLE_LINE2":"2 47655  53.0551 294.2270 0001386  62.2355 297.8775 15.06406453 67030","NORAD_CAT_ID":"47655","TLE_LINE1":"1 47655U 21012AM  22116.82313758  .00001765  00000-0  13734-3 0  9992","PERIOD":"95.592","ARG_OF_PERICENTER":"62.2355","MEAN_ELEMENT_THEORY":"SGP4","GP_ID":"202109744"},{"ELEMENT_SET_NO":"999","RA_OF_ASC_NODE":"274.1523","REF_FRAME":"TEME","COUNTRY_CODE":"US","PERIAPSIS":"545.740","CLASSIFICATION_TYPE":"U","RCS_SIZE":"LARGE","CENTER_NAME":"EARTH","SITE":"AFETR","LAUNCH_DATE":"2021-02-16","MEAN_ANOMALY":"322.9267","ECCENTRICITY":"0.00021050","OBJECT_ID":"2021-012AN","BSTAR":"0.00030537000000","INCLINATION":"53.0557","APOAPSIS":"548.656","FILE":"3417474","MEAN_MOTION_DOT":"0.00004270","MEAN_MOTION_DDOT":"0.0000000000000","EPHEMERIS_TYPE":"0","EPOCH":"2022-04-26T20:09:11.776032","TIME_SYSTEM":"UTC","SEMIMAJOR_AXIS":"6925.333","DECAY_DATE":null,"TLE_LINE1":"1 47656U 21012AN  22116.83971963  .00004270  00000-0  30537-3 0  9996","NORAD_CAT_ID":"47656","ARG_OF_PERICENTER":"37.1868","PERIOD":"95.592","GP_ID":"202110999","MEAN_ELEMENT_THEORY":"SGP4","OBJECT_TYPE":"PAYLOAD","OBJECT_NAME":"STARLINK-2040","TLE_LINE2":"2 47656  53.0557 274.1523 0002105  37.1868 322.9267 15.06405022 67313","MEAN_MOTION":"15.06405022","REV_AT_EPOCH":"6731"},{"EPOCH":"2022-04-26T20:17:09.123936","SEMIMAJOR_AXIS":"6925.325","DECAY_DATE":null,"TIME_SYSTEM":"UTC","MEAN_MOTION_DOT":"0.00003206","MEAN_MOTION_DDOT":"0.0000000000000","EPHEMERIS_TYPE":"0","OBJECT_NAME":"STARLINK-2041","OBJECT_TYPE":"PAYLOAD","MEAN_MOTION":"15.06407553","REV_AT_EPOCH":"6703","TLE_LINE2":"2 47657  53.0549 294.1344 0001614  82.9546 277.1627 15.06407553 67034","TLE_LINE1":"1 47657U 21012AP  22116.84524449  .00003206  00000-0  23398-3 0  9996","NORAD_CAT_ID":"47657","ARG_OF_PERICENTER":"82.9546","PERIOD":"95.592","MEAN_ELEMENT_THEORY":"SGP4","GP_ID":"202111251","REF_FRAME":"TEME","COUNTRY_CODE":"US","PERIAPSIS":"546.073","RCS_SIZE":"LARGE","CLASSIFICATION_TYPE":"U","RA_OF_ASC_NODE":"294.1344","ELEMENT_SET_NO":"999","OBJECT_ID":"2021-012AP","LAUNCH_DATE":"2021-02-16","MEAN_ANOMALY":"277.1627","ECCENTRICITY":"0.00016140","APOAPSIS":"548.308","FILE":"3417474","BSTAR":"0.00023398000000","INCLINATION":"53.0549","CENTER_NAME":"EARTH","SITE":"AFETR"},{"OBJECT_NAME":"STARLINK-2042","OBJECT_TYPE":"PAYLOAD","MEAN_MOTION":"15.06408422","REV_AT_EPOCH":"6705","TLE_LINE2":"2 47658  53.0556 294.1606 0001378  69.9587 290.1550 15.06408422 67059","TLE_LINE1":"1 47658U 21012AQ  22116.83787141 -.00000572  00000-0 -19532-4 0  9997","NORAD_CAT_ID":"47658","PERIOD":"95.592","ARG_OF_PERICENTER":"69.9587","MEAN_ELEMENT_THEORY":"SGP4","GP_ID":"202109998","EPOCH":"2022-04-26T20:06:32.089824","SEMIMAJOR_AXIS":"6925.323","DECAY_DATE":null,"TIME_SYSTEM":"UTC","MEAN_MOTION_DOT":"-0.00000572","MEAN_MOTION_DDOT":"0.0000000000000","EPHEMERIS_TYPE":"0","OBJECT_ID":"2021-012AQ","LAUNCH_DATE":"2021-02-16","ECCENTRICITY":"0.00013780","MEAN_ANOMALY":"290.1550","FILE":"3417474","APOAPSIS":"548.142","INCLINATION":"53.0556","BSTAR":"-0.00001953200000","CENTER_NAME":"EARTH","SITE":"AFETR","REF_FRAME":"TEME","PERIAPSIS":"546.233","COUNTRY_CODE":"US","CLASSIFICATION_TYPE":"U","RCS_SIZE":"LARGE","RA_OF_ASC_NODE":"294.1606","ELEMENT_SET_NO":"999"}];
